[{"OBJECT_NAME":"STARLINK-35376","OBJECT_ID":"2025-232P","EPOCH":"2026-03-09T12:10:11.609184","MEAN_MOTION":15.30193815,"ECCENTRICITY":0.00013059,"INCLINATION":53.1587,"RA_OF_ASC_NODE":105.0347,"ARG_OF_PERICENTER":91.242,"MEAN_ANOMALY":268.873,"EPHEMERIS_TYPE":0,"CLASSIFICATION_TYPE":"U","NORAD_CAT_ID":66018,"ELEMENT_SET_NO":999,"REV_AT_EPOCH":2340,"BSTAR":0.0010102205,"MEAN_MOTION_DOT":0.00029674,"MEAN_MOTION_DDOT":0},{"OBJECT_NAME":"TRANSPORTER-1 OBJECT AA","OBJECT_ID":"2021-006AA","EPOCH":"2026-03-09T22:58:14.761920","MEAN_MOTION":15.29982294,"ECCENTRICITY":0.00086604,"INCLINATION":97.2381,"RA_OF_ASC_NODE":112.457,"ARG_OF_PERICENTER":185.709,"MEAN_ANOMALY":174.4054,"EPHEMERIS_TYPE":0,"CLASSIFICATION_TYPE":"U","NORAD_CAT_ID":47437,"ELEMENT_SET_NO":999,"REV_AT_EPOCH":28414,"BSTAR":0.0002197941,"MEAN_MOTION_DOT":6.312e-5,"MEAN_MOTION_DDOT":0}]
